NORAD_CAT_ID,OBJECT_NAME,OBJECT_TYPE,EPOCH,MEAN_MOTION,ECCENTRICITY,INCLINATION,RA_OF_ASC_NODE,ARG_OF_PERICENTER,MEAN_ANOMALY,BSTAR,MEAN_MOTION_DOT,MEAN_MOTION_DDOT,TLE_LINE0,TLE_LINE1,TLE_LINE2,SEMIMAJOR_AXIS,PERIOD,APOGEE,PERIGEE,DECAYED
52882.0,STARLINK-4181,PAYLOAD,2024-08-04 22:48:54,15.0884276,0.0001056,53.2157,105.2253,85.1879,274.9234,0.00025066,3.704e-05,0.0,0 STARLINK-4181,1 52882U 22062BE  24217.95062902  .00003704  00000-0  25066-3 0  9992,2 52882  53.2157 105.2253 0001056  85.1879 274.9234 15.08842760118257,6917.872,95.437,540.467,539.006,0.0
52882.0,STARLINK-4181,PAYLOAD,2024-08-05 00:24:16,15.08863077,0.00012,53.2155,104.9298,81.6486,278.4642,0.00060639,9.382e-05,0.0,0 STARLINK-4181,1 52882U 22062BE  24218.01686082  .00009382  00000-0  60639-3 0  9994,2 52882  53.2155 104.9298 0001200  81.6486 278.4642 15.08863077118757,6917.81,95.436,540.505,538.845,0.0
52882.0,STARLINK-4181,PAYLOAD,2024-08-05 21:04:18,15.0883516,0.0001604,53.215,101.0642,100.6208,259.4965,-1.4338e-05,-5.16e-06,0.0,0 STARLINK-4181,1 52882U 22062BE  24218.87799135 -.00000516  00000-0 -14338-4 0  9990,2 52882  53.2150 101.0642 0001604 100.6208 259.4965 15.08835160118888,6917.895,95.438,540.87,538.651,0.0
52882.0,STARLINK-4181,PAYLOAD,2024-08-05 22:39:41,15.08832455,0.000129,53.2147,100.7671,102.2238,257.8899,-7.8923e-05,-1.543e-05,0.0,0 STARLINK-4181,1 52882U 22062BE  24218.94423229 -.00001543  00000-0 -78923-4 0  9997,2 52882  53.2147 100.7671 0001290 102.2238 257.8899 15.08832455118404,6917.903,95.438,540.661,538.876,0.0
52882.0,STARLINK-4181,PAYLOAD,2024-08-06 20:55:05,15.08840645,0.0001481,53.2163,96.6011,114.4886,245.626,0.00020264,2.939e-05,0.0,0 STARLINK-4181,1 52882U 22062BE  24219.87159330  .00002939  00000-0  20264-3 0  9991,2 52882  53.2163  96.6011 0001481 114.4886 245.6260 15.08840645118541,6917.878,95.438,540.768,538.719,0.0
52882.0,STARLINK-4181,PAYLOAD,2024-08-06 22:30:28,15.08843362,0.000138,53.2158,96.3043,111.7094,248.4045,0.00012553,1.711e-05,0.0,0 STARLINK-4181,1 52882U 22062BE  24219.93783201  .00001711  00000-0  12553-3 0  9997,2 52882  53.2158  96.3043 0001380 111.7094 248.4045 15.08843362119043,6917.87,95.437,540.69,538.78,0.0
52882.0,STARLINK-4181,PAYLOAD,2024-08-07 20:45:52,15.08849046,0.0001466,53.2156,92.1407,116.6155,243.4988,0.00036332,5.5e-05,0.0,0 STARLINK-4181,1 52882U 22062BE  24220.86519147  .00005500  00000-0  36332-3 0  9998,2 52882  53.2156  92.1407 0001466 116.6155 243.4988 15.08849046118692,6917.853,95.437,540.732,538.704,0.0
52882.0,STARLINK-4181,PAYLOAD,2024-08-08 22:12:02,15.08848753,0.0001397,53.2164,87.3885,94.7962,265.3189,0.00013384,1.843e-05,0.0,0 STARLINK-4181,1 52882U 22062BE  24221.92502907  .00001843  00000-0  13384-3 0  9990,2 52882  53.2164  87.3885 0001397  94.7962 265.3189 15.08848753119345,6917.854,95.437,540.685,538.752,0.0
52882.0,STARLINK-4181,PAYLOAD,2024-08-09 07:44:21,15.08845825,0.000147,53.2152,85.5953,55.7297,304.3834,6.2368e-05,7.05e-06,0.0,0 STARLINK-4181,1 52882U 22062BE  24222.32246934  .00000705  00000-0  62368-4 0  9993,2 52882  53.2152  85.5953 0001470  55.7297 304.3834 15.08845825118918,6917.863,95.437,540.745,538.711,0.0
52882.0,STARLINK-4181,PAYLOAD,2024-08-09 20:27:26,15.08843731,0.0001265,53.2157,83.2191,69.615,290.4978,6.8998e-05,8.1e-06,0.0,0 STARLINK-4181,1 52882U 22062BE  24222.85239062  .00000810  00000-0  68998-4 0  9997,2 52882  53.2157  83.2191 0001265  69.6150 290.4978 15.08843731119487,6917.869,95.437,540.609,538.859,0.0
52882.0,STARLINK-4181,PAYLOAD,2024-08-10 13:56:41,15.08840432,0.0001053,53.2153,79.948,74.6342,285.4767,-4.1832e-05,-9.53e-06,0.0,0 STARLINK-4181,1 52882U 22062BE  24223.58103231 -.00000953  00000-0 -41832-4 0  9994,2 52882  53.2153  79.9480 0001053  74.6342 285.4767 15.08840432119104,6917.879,95.438,540.473,539.016,0.0
52882.0,STARLINK-4181,PAYLOAD,2024-08-10 20:18:13,15.08847525,0.0001284,53.2167,78.7603,76.3051,283.8084,8.1286e-05,1.006e-05,0.0,0 STARLINK-4181,1 52882U 22062BE  24223.84598929  .00001006  00000-0  81286-4 0  9990,2 52882  53.2167  78.7603 0001284  76.3051 283.8084 15.08847525119143,6917.857,95.437,540.611,538.834,0.0
52882.0,STARLINK-4181,PAYLOAD,2024-08-11 13:47:28,15.08838903,0.0001209,53.2175,75.494,101.5432,258.5696,0.00020482,2.973e-05,0.0,0 STARLINK-4181,1 52882U 22062BE  24224.57463407  .00002973  00000-0  20482-3 0  9997,2 52882  53.2175  75.4940 0001209 101.5432 258.5696 15.08838903119745,6917.884,95.438,540.585,538.912,0.0
52882.0,STARLINK-4181,PAYLOAD,2024-08-11 20:09:00,15.08843394,0.0001461,53.2172,74.3052,96.8418,263.2741,0.00017533,2.504e-05,0.0,0 STARLINK-4181,1 52882U 22062BE  24224.83959403  .00002504  00000-0  17533-3 0  9995,2 52882  53.2172  74.3052 0001461  96.8418 263.2741 15.08843394119298,6917.87,95.437,540.746,538.724,0.0
52882.0,STARLINK-4181,PAYLOAD,2024-08-12 07:16:43,15.08832751,0.0002021,53.2165,72.2207,71.0472,289.0739,-2.8638e-05,-7.44e-06,0.0,0 STARLINK-4181,1 52882U 22062BE  24225.30327958 -.00000744  00000-0 -28638-4 0  9997,2 52882  53.2165  72.2207 0002021  71.0472 289.0739 15.08832751119857,6917.903,95.438,541.166,538.369,0.0
52882.0,STARLINK-4181,PAYLOAD,2024-08-12 19:59:47,15.08855435,0.0001246,53.2175,69.8405,79.3171,280.7961,0.00036601,5.544e-05,0.0,0 STARLINK-4181,1 52882U 22062BE  24225.83318656  .00005544  00000-0  36601-3 0  9999,2 52882  53.2175  69.8405 0001246  79.3171 280.7961 15.08855435119933,6917.833,95.437,540.56,538.836,0.0
52882.0,STARLINK-4181,PAYLOAD,2024-08-13 13:29:04,15.08809845,0.000194,53.2162,66.5726,85.778,274.3434,-0.00041563,-6.891e-05,0.0,0 STARLINK-4181,1 52882U 22062BE  24226.56185210 -.00006891  00000-0 -41563-3 0  9999,2 52882  53.2162  66.5726 0001940  85.7780 274.3434 15.08809845120049,6917.973,95.439,541.18,538.495,0.0
52882.0,STARLINK-4181,PAYLOAD,2024-08-13 19:50:36,15.08809476,0.000183,53.2162,65.3832,91.331,268.7891,-0.00032997,-5.531e-05,0.0,0 STARLINK-4181,1 52882U 22062BE  24226.82681702 -.00005531  00000-0 -32997-3 0  9996,2 52882  53.2162  65.3832 0001830  91.3310 268.7891 15.08809476119596,6917.974,95.439,541.105,538.573,0.0
52882.0,STARLINK-4181,PAYLOAD,2024-08-13 23:01:23,15.08810746,0.0001932,53.2156,64.7878,89.5777,270.5437,-0.0002759,-4.673e-05,0.0,0 STARLINK-4181,1 52882U 22062BE  24226.95929864 -.00004673  00000-0 -27590-3 0  9993,2 52882  53.2156  64.7878 0001932  89.5777 270.5437 15.08810746119613,6917.97,95.439,541.171,538.498,0.0
52882.0,STARLINK-4181,PAYLOAD,2024-08-14 19:41:23,15.08842611,0.0001883,53.2168,60.9201,90.005,270.1158,0.00067434,0.00010461,0.0,0 STARLINK-4181,1 52882U 22062BE  24227.82041316  .00010461  00000-0  67434-3 0  9998,2 52882  53.2168  60.9201 0001883  90.0050 270.1158 15.08842611120232,6917.872,95.437,541.04,538.435,0.0
52882.0,STARLINK-4181,PAYLOAD,2024-08-14 21:16:46,15.08846546,0.000152,53.2167,60.6208,92.304,267.8127,0.00072883,0.00011332,0.0,0 STARLINK-4181,1 52882U 22062BE  24227.88665114  .00011332  00000-0  72883-3 0  9994,2 52882  53.2167  60.6208 0001520  92.3040 267.8127 15.08846546119752,6917.86,95.437,540.777,538.674,0.0
52882.0,STARLINK-4181,PAYLOAD,2024-08-16 05:04:28,15.08859327,0.0001749,53.2154,54.6727,87.8417,272.2775,0.00027841,4.148e-05,0.0,0 STARLINK-4181,1 52882U 22062BE  24229.21144391  .00004148  00000-0  27841-3 0  9993,2 52882  53.2154  54.6727 0001749  87.8417 272.2775 15.08859327120445,6917.821,95.436,540.896,538.476,0.0
52882.0,STARLINK-4181,PAYLOAD,2024-08-17 20:49:05,15.08868039,0.0001634,53.2156,47.2399,94.6966,265.4213,0.00027238,4.053e-05,0.0,0 STARLINK-4181,1 52882U 22062BE  24230.86741934  .00004053  00000-0  27238-3 0  9997,2 52882  53.2156  47.2399 0001634  94.6966 265.4213 15.08868039120696,6917.795,95.436,540.79,538.529,0.0
52882.0,STARLINK-4181,PAYLOAD,2024-08-18 19:04:29,15.08831868,0.0001045,53.2166,43.0734,109.1323,250.9783,-0.00022381,-3.847e-05,0.0,0 STARLINK-4181,1 52882U 22062BE  24231.79478356 -.00003847  00000-0 -22381-3 0  9991,2 52882  53.2166  43.0734 0001045 109.1323 250.9783 15.08831868120836,6917.905,95.438,540.493,539.047,0.0
52882.0,STARLINK-4181,PAYLOAD,2024-08-19 10:58:22,15.08819289,8.96e-05,53.2169,40.1031,108.4972,251.6118,4.352e-05,4.05e-06,0.0,0 STARLINK-4181,1 52882U 22062BE  24232.45720016  .00000405  00000-0  43520-4 0  9992,2 52882  53.2169  40.1031 0000896 108.4972 251.6118 15.08819289120936,6917.944,95.439,540.429,539.189,0.0
52882.0,STARLINK-4181,PAYLOAD,2024-08-20 04:27:36,15.08827534,8.62e-05,53.216,36.8326,104.9177,255.191,9.6103e-05,1.242e-05,0.0,0 STARLINK-4181,1 52882U 22062BE  24233.18584136  .00001242  00000-0  96103-4 0  9999,2 52882  53.2160  36.8326 0000862 104.9177 255.1910 15.08827534121041,6917.918,95.438,540.38,539.187,0.0
52882.0,STARLINK-4181,PAYLOAD,2024-08-20 10:49:09,15.08830576,8.74e-05,53.216,35.6416,108.0658,252.0429,0.00016415,2.325e-05,0.0,0 STARLINK-4181,1 52882U 22062BE  24233.45079942  .00002325  00000-0  16415-3 0  9993,2 52882  53.2160  35.6416 0000874 108.0658 252.0429 15.08830576120590,6917.909,95.438,540.379,539.17,0.0
52882.0,STARLINK-4181,PAYLOAD,2024-08-20 17:10:41,15.08835999,8.79e-05,53.2163,34.4527,105.3675,254.7414,0.00020896,3.039e-05,0.0,0 STARLINK-4181,1 52882U 22062BE  24233.71575758  .00003039  00000-0  20896-3 0  9999,2 52882  53.2163  34.4527 0000879 105.3675 254.7414 15.08835999121124,6917.893,95.438,540.366,539.15,0.0
52882.0,STARLINK-4181,PAYLOAD,2024-08-20 21:56:50,15.08844028,9.53e-05,53.2175,33.5607,103.8741,256.2357,0.00027703,4.124e-05,0.0,0 STARLINK-4181,1 52882U 22062BE  24233.91447277  .00004124  00000-0  27703-3 0  9995,2 52882  53.2175  33.5607 0000953 103.8741 256.2357 15.08844028121155,6917.868,95.437,540.392,539.074,0.0
52882.0,STARLINK-4181,PAYLOAD,2024-08-21 13:50:43,15.08830376,9.82e-05,53.2159,30.5867,101.8754,258.2348,0.00011022,1.466e-05,0.0,0 STARLINK-4181,1 52882U 22062BE  24234.57689066  .00001466  00000-0  11022-3 0  9995,2 52882  53.2159  30.5867 0000982 101.8754 258.2348 15.08830376120765,6917.91,95.438,540.454,539.095,0.0
